[{"OBJECT_NAME":"ONEWEB-0638","OBJECT_ID":"2023-029G","EPOCH":"2026-06-08T02:33:39.055392","MEAN_MOTION":13.14502903,"ECCENTRICITY":0.0001962,"INCLINATION":87.8944,"RA_OF_ASC_NODE":291.563,"ARG_OF_PERICENTER":83.5249,"MEAN_ANOMALY":276.6104,"EPHEMERIS_TYPE":0,"CLASSIFICATION_TYPE":"U","NORAD_CAT_ID":55802,"ELEMENT_SET_NO":999,"REV_AT_EPOCH":15820,"BSTAR":-7.0764e-05,"MEAN_MOTION_DOT":-1.3e-07,"MEAN_MOTION_DDOT":0.0},{"OBJECT_NAME":"ONEWEB-0639","OBJECT_ID":"2023-029H","EPOCH":"2026-06-08T07:30:41.920416","MEAN_MOTION":13.19724935,"ECCENTRICITY":9.19e-05,"INCLINATION":87.9161,"RA_OF_ASC_NODE":306.7446,"ARG_OF_PERICENTER":113.6839,"MEAN_ANOMALY":246.439,"EPHEMERIS_TYPE":0,"CLASSIFICATION_TYPE":"U","NORAD_CAT_ID":55803,"ELEMENT_SET_NO":999,"REV_AT_EPOCH":15773,"BSTAR":8.9981e-05,"MEAN_MOTION_DOT":4.9e-07,"MEAN_MOTION_DDOT":0.0},{"OBJECT_NAME":"ONEWEB-0640","OBJECT_ID":"2023-029J","EPOCH":"2026-06-08T02:47:21.046848","MEAN_MOTION":13.14502734,"ECCENTRICITY":0.0001592,"INCLINATION":87.8947,"RA_OF_ASC_NODE":291.552,"ARG_OF_PERICENTER":77.9683,"MEAN_ANOMALY":282.1625,"EPHEMERIS_TYPE":0,"CLASSIFICATION_TYPE":"U","NORAD_CAT_ID":55804,"ELEMENT_SET_NO":999,"REV_AT_EPOCH":15822,"BSTAR":0.0007666500000000001,"MEAN_MOTION_DOT":2.97e-06,"MEAN_MOTION_DDOT":0.0},{"OBJECT_NAME":"ONEWEB-0641","OBJECT_ID":"2023-029K","EPOCH":"2026-06-08T03:45:30.486240","MEAN_MOTION":13.19723481,"ECCENTRICITY":0.0001664,"INCLINATION":87.9168,"RA_OF_ASC_NODE":306.7642,"ARG_OF_PERICENTER":99.9132,"MEAN_ANOMALY":260.2189,"EPHEMERIS_TYPE":0,"CLASSIFICATION_TYPE":"U","NORAD_CAT_ID":55805,"ELEMENT_SET_NO":999,"REV_AT_EPOCH":15772,"BSTAR":0.00011716,"MEAN_MOTION_DOT":6e-07,"MEAN_MOTION_DDOT":0.0},{"OBJECT_NAME":"ONEWEB-0642","OBJECT_ID":"2023-029L","EPOCH":"2026-06-08T03:38:41.562816","MEAN_MOTION":13.1972385,"ECCENTRICITY":0.0001211,"INCLINATION":87.916,"RA_OF_ASC_NODE":306.7777,"ARG_OF_PERICENTER":119.2547,"MEAN_ANOMALY":240.8707,"EPHEMERIS_TYPE":0,"CLASSIFICATION_TYPE":"U","NORAD_CAT_ID":55806,"ELEMENT_SET_NO":999,"REV_AT_EPOCH":15771,"BSTAR":-4.2356e-05,"MEAN_MOTION_DOT":-4e-08,"MEAN_MOTION_DDOT":0.0},{"OBJECT_NAME":"ONEWEB-0643","OBJECT_ID":"2023-029M","EPOCH":"2026-06-07T18:45:31.885920","MEAN_MOTION":13.14503048,"ECCENTRICITY":0.0001546,"INCLINATION":87.8946,"RA_OF_ASC_NODE":291.6062,"ARG_OF_PERICENTER":120.7696,"MEAN_ANOMALY":239.3586,"EPHEMERIS_TYPE":0,"CLASSIFICATION_TYPE":"U","NORAD_CAT_ID":55807,"ELEMENT_SET_NO":999,"REV_AT_EPOCH":15815,"BSTAR":-0.0005277500000000001,"MEAN_MOTION_DOT":-1.83e-06,"MEAN_MOTION_DDOT":0.0},{"OBJECT_NAME":"ONEWEB-0644","OBJECT_ID":"2023-029N","EPOCH":"2026-06-08T03:31:51.486816","MEAN_MOTION":13.19724054,"ECCENTRICITY":0.0001593,"INCLINATION":87.9162,"RA_OF_ASC_NODE":306.7803,"ARG_OF_PERICENTER":104.798,"MEAN_ANOMALY":255.3329,"EPHEMERIS_TYPE":0,"CLASSIFICATION_TYPE":"U","NORAD_CAT_ID":55808,"ELEMENT_SET_NO":999,"REV_AT_EPOCH":15771,"BSTAR":9.3774e-05,"MEAN_MOTION_DOT":5e-07,"MEAN_MOTION_DDOT":0.0},{"OBJECT_NAME":"ONEWEB-0645","OBJECT_ID":"2023-029P","EPOCH":"2026-06-08T04:03:41.916960","MEAN_MOTION":13.19723367,"ECCENTRICITY":0.0001393,"INCLINATION":87.9161,"RA_OF_ASC_NODE":306.7726,"ARG_OF_PERICENTER":90.4891,"MEAN_ANOMALY":269.6401,"EPHEMERIS_TYPE":0,"CLASSIFICATION_TYPE":"U","NORAD_CAT_ID":55809,"ELEMENT_SET_NO":999,"REV_AT_EPOCH":15771,"BSTAR":-2.0412e-05,"MEAN_MOTION_DOT":5e-08,"MEAN_MOTION_DDOT":0.0},{"OBJECT_NAME":"ONEWEB-0646","OBJECT_ID":"2023-029Q","EPOCH":"2026-06-08T02:39:33.939072","MEAN_MOTION":13.19725172,"ECCENTRICITY":0.000161,"INCLINATION":87.916,"RA_OF_ASC_NODE":306.7843,"ARG_OF_PERICENTER":103.5072,"MEAN_ANOMALY":256.6241,"EPHEMERIS_TYPE":0,"CLASSIFICATION_TYPE":"U","NORAD_CAT_ID":55810,"ELEMENT_SET_NO":999,"REV_AT_EPOCH":15769,"BSTAR":-4.7204000000000004e-05,"MEAN_MOTION_DOT":-6e-08,"MEAN_MOTION_DDOT":0.0},{"OBJECT_NAME":"ONEWEB-0648","OBJECT_ID":"2023-029R","EPOCH":"2026-06-08T03:07:52.983840","MEAN_MOTION":13.14504582,"ECCENTRICITY":9.26e-05,"INCLINATION":87.896,"RA_OF_ASC_NODE":291.5088,"ARG_OF_PERICENTER":99.0716,"MEAN_ANOMALY":261.0519,"EPHEMERIS_TYPE":0,"CLASSIFICATION_TYPE":"U","NORAD_CAT_ID":55811,"ELEMENT_SET_NO":999,"REV_AT_EPOCH":15820,"BSTAR":0.00039933000000000004,"MEAN_MOTION_DOT":1.61e-06,"MEAN_MOTION_DDOT":0.0},{"OBJECT_NAME":"ONEWEB-0649","OBJECT_ID":"2023-029S","EPOCH":"2026-06-07T21:48:24.754176","MEAN_MOTION":13.19724489,"ECCENTRICITY":0.0001537,"INCLINATION":87.9161,"RA_OF_ASC_NODE":306.8227,"ARG_OF_PERICENTER":95.6965,"MEAN_ANOMALY":264.4343,"EPHEMERIS_TYPE":0,"CLASSIFICATION_TYPE":"U","NORAD_CAT_ID":55812,"ELEMENT_SET_NO":999,"REV_AT_EPOCH":15770,"BSTAR":0.00030452,"MEAN_MOTION_DOT":1.35e-06,"MEAN_MOTION_DDOT":0.0},{"OBJECT_NAME":"ONEWEB-0650","OBJECT_ID":"2023-029T","EPOCH":"2026-06-08T03:09:06.076512","MEAN_MOTION":13.19720905,"ECCENTRICITY":0.0001377,"INCLINATION":87.9164,"RA_OF_ASC_NODE":306.781,"ARG_OF_PERICENTER":106.7163,"MEAN_ANOMALY":253.4121,"EPHEMERIS_TYPE":0,"CLASSIFICATION_TYPE":"U","NORAD_CAT_ID":55813,"ELEMENT_SET_NO":999,"REV_AT_EPOCH":15770,"BSTAR":0.0013832,"MEAN_MOTION_DOT":5.67e-06,"MEAN_MOTION_DDOT":0.0},{"OBJECT_NAME":"ONEWEB-0652","OBJECT_ID":"2023-029U","EPOCH":"2026-06-08T02:40:29.289504","MEAN_MOTION":13.14506501,"ECCENTRICITY":0.0002161,"INCLINATION":87.8971,"RA_OF_ASC_NODE":291.5209,"ARG_OF_PERICENTER":96.9186,"MEAN_ANOMALY":263.219,"EPHEMERIS_TYPE":0,"CLASSIFICATION_TYPE":"U","NORAD_CAT_ID":55814,"ELEMENT_SET_NO":999,"REV_AT_EPOCH":15817,"BSTAR":0.00077832,"MEAN_MOTION_DOT":3.01e-06,"MEAN_MOTION_DDOT":0.0},{"OBJECT_NAME":"ONEWEB-0653","OBJECT_ID":"2023-029V","EPOCH":"2026-06-08T02:17:39.344064","MEAN_MOTION":13.14502651,"ECCENTRICITY":0.0001891,"INCLINATION":87.8955,"RA_OF_ASC_NODE":291.5214,"ARG_OF_PERICENTER":97.0144,"MEAN_ANOMALY":263.12,"EPHEMERIS_TYPE":0,"CLASSIFICATION_TYPE":"U","NORAD_CAT_ID":55815,"ELEMENT_SET_NO":999,"REV_AT_EPOCH":15820,"BSTAR":-0.00056094,"MEAN_MOTION_DOT":-1.95e-06,"MEAN_MOTION_DDOT":0.0},{"OBJECT_NAME":"ONEWEB-0654","OBJECT_ID":"2023-029W","EPOCH":"2026-06-08T07:39:38.319264","MEAN_MOTION":13.1450378,"ECCENTRICITY":0.000221,"INCLINATION":87.8948,"RA_OF_ASC_NODE":291.4728,"ARG_OF_PERICENTER":94.5613,"MEAN_ANOMALY":265.5769,"EPHEMERIS_TYPE":0,"CLASSIFICATION_TYPE":"U","NORAD_CAT_ID":55816,"ELEMENT_SET_NO":999,"REV_AT_EPOCH":15825,"BSTAR":-0.0005970400000000001,"MEAN_MOTION_DOT":-2.09e-06,"MEAN_MOTION_DDOT":0.0},{"OBJECT_NAME":"ONEWEB-0656","OBJECT_ID":"2023-029X","EPOCH":"2026-06-07T21:16:19.043328","MEAN_MOTION":13.20771915,"ECCENTRICITY":0.0002372,"INCLINATION":87.9191,"RA_OF_ASC_NODE":276.2835,"ARG_OF_PERICENTER":95.8864,"MEAN_ANOMALY":264.2539,"EPHEMERIS_TYPE":0,"CLASSIFICATION_TYPE":"U","NORAD_CAT_ID":55817,"ELEMENT_SET_NO":999,"REV_AT_EPOCH":15992,"BSTAR":0.00018046999999999998,"MEAN_MOTION_DOT":8.6e-07,"MEAN_MOTION_DDOT":0.0}]