ONEWEB-0638             
1 55802U 23029G   26159.10670203 -.00000013  00000+0 -70764-4 0  9991
2 55802  87.8944 291.5630 0001962  83.5249 276.6104 13.14502903158207
ONEWEB-0639             
1 55803U 23029H   26159.31298519  .00000049  00000+0  89981-4 0  9999
2 55803  87.9161 306.7446 0000919 113.6839 246.4390 13.19724935157730
ONEWEB-0640             
1 55804U 23029J   26159.11621582  .00000297  00000+0  76665-3 0  9997
2 55804  87.8947 291.5520 0001592  77.9683 282.1625 13.14502734158222
ONEWEB-0641             
1 55805U 23029K   26159.15660285  .00000060  00000+0  11716-3 0  9999
2 55805  87.9168 306.7642 0001664  99.9132 260.2189 13.19723481157721
ONEWEB-0642             
1 55806U 23029L   26159.15186994 -.00000004  00000+0 -42356-4 0  9995
2 55806  87.9160 306.7777 0001211 119.2547 240.8707 13.19723850157716
ONEWEB-0643             
1 55807U 23029M   26158.78161905 -.00000183  00000+0 -52775-3 0  9992
2 55807  87.8946 291.6062 0001546 120.7696 239.3586 13.14503048158157
ONEWEB-0644             
1 55808U 23029N   26159.14712369  .00000050  00000+0  93774-4 0  9996
2 55808  87.9162 306.7803 0001593 104.7980 255.3329 13.19724054157711
ONEWEB-0645             
1 55809U 23029P   26159.16923515  .00000005  00000+0 -20412-4 0  9996
2 55809  87.9161 306.7726 0001393  90.4891 269.6401 13.19723367157710
ONEWEB-0646             
1 55810U 23029Q   26159.11080948 -.00000006  00000+0 -47204-4 0  9997
2 55810  87.9160 306.7843 0001610 103.5072 256.6241 13.19725172157691
ONEWEB-0648             
1 55811U 23029R   26159.13047435  .00000161  00000+0  39933-3 0  9993
2 55811  87.8960 291.5088 0000926  99.0716 261.0519 13.14504582158205
ONEWEB-0649             
1 55812U 23029S   26158.90861984  .00000135  00000+0  30452-3 0  9999
2 55812  87.9161 306.8227 0001537  95.6965 264.4343 13.19724489157703
ONEWEB-0650             
1 55813U 23029T   26159.13132033  .00000567  00000+0  13832-2 0  9993
2 55813  87.9164 306.7810 0001377 106.7163 253.4121 13.19720905157701
ONEWEB-0652             
1 55814U 23029U   26159.11145011  .00000301  00000+0  77832-3 0  9999
2 55814  87.8971 291.5209 0002161  96.9186 263.2190 13.14506501158173
ONEWEB-0653             
1 55815U 23029V   26159.09559426 -.00000195  00000+0 -56094-3 0  9996
2 55815  87.8955 291.5214 0001891  97.0144 263.1200 13.14502651158204
ONEWEB-0654             
1 55816U 23029W   26159.31919351 -.00000209  00000+0 -59704-3 0  9996
2 55816  87.8948 291.4728 0002210  94.5613 265.5769 13.14503780158250
ONEWEB-0656             
1 55817U 23029X   26158.88633152  .00000086  00000+0  18047-3 0  9996
2 55817  87.9191 276.2835 0002372  95.8864 264.2539 13.20771915159923
